OBJECT_NAME,OBJECT_ID,EPOCH,MEAN_MOTION,ECCENTRICITY,INCLINATION,RA_OF_ASC_NODE,ARG_OF_PERICENTER,MEAN_ANOMALY,EPHEMERIS_TYPE,CLASSIFICATION_TYPE,NORAD_CAT_ID,ELEMENT_SET_NO,REV_AT_EPOCH,BSTAR,MEAN_MOTION_DOT,MEAN_MOTION_DDOT
PERSEUS-M1,2014-033AF,2026-05-12T02:35:25.234080,14.95506048,.0012865,97.9626,75.6560,61.0721,299.1788,0,U,40039,999,64524,.10866E-3,.1144E-4,0
POLYITAN-1,2014-033AJ,2026-05-12T00:16:46.554816,15.31997831,.0005363,98.0977,154.8860,270.7833,89.2792,0,U,40042,999,64805,.37566E-3,.11526E-3,0
TIGRISAT,2014-033AK,2026-05-12T03:15:48.858624,14.85004931,.0049212,97.7789,282.9872,191.3333,168.6778,0,U,40043,999,64027,.17608E-3,.1479E-4,0
AEROCUBE 6A,2014-033AM,2026-05-12T00:24:52.295616,14.97700222,.0040228,97.7213,299.3688,134.9160,225.5338,0,U,40045,999,64120,.40163E-3,.4724E-4,0
AEROCUBE 6B,2014-033AN,2026-05-12T04:30:35.488800,14.99123870,.003787,97.7173,299.2558,127.8425,232.6234,0,U,40046,999,64136,.33101E-3,.4023E-4,0
CANX-4,2014-034C,2026-05-12T01:53:45.708000,14.81196017,.0013857,98.3172,6.0596,123.8085,236.4448,0,U,40055,999,63918,.73067E-4,.512E-5,0
CANX-5,2014-034D,2026-05-12T01:52:06.327264,14.81213016,.0013848,98.3173,6.0997,124.0358,236.2170,0,U,40056,999,62999,.72527E-4,.508E-5,0
UKUBE-1,2014-037F,2026-05-11T22:22:08.736384,15.12964849,.000048,98.4249,131.4144,53.7826,306.3447,0,U,40074,999,64307,.29285E-3,.5087E-4,0
BRITE-PL2 (HEWELIUSZ),2014-049B,2026-05-11T21:13:05.400192,14.94455446,.0013037,97.9056,243.6164,226.1248,133.8896,0,U,40119,999,63602,.78661E-4,.79E-5,0
AEROCUBE 5C,2015-058B,2026-05-12T02:15:05.702400,14.91244809,.012978,64.7691,14.8570,77.4621,284.0972,0,U,40965,999,36027,.18174E-3,.195E-4,0
AEROCUBE 7,2015-058C,2026-05-12T01:24:22.662432,14.95439863,.0119551,64.7636,357.9541,76.1742,285.2641,0,U,40966,999,36055,.23301E-3,.2799E-4,0
FOX-1A (AO-85),2015-058D,2026-05-12T01:30:00.772416,14.90752582,.0128946,64.7768,31.2284,70.7546,290.7464,0,U,40967,999,10818,.19751E-3,.2101E-4,0
SINOD-D 1,2015-058E,2026-05-12T00:58:49.706976,14.95618001,.0117423,64.7770,12.0834,67.5591,293.7910,0,U,40968,999,11125,.24226E-3,.2917E-4,0
SNAP-3 ALICE,2015-058G,2026-05-11T13:01:17.624640,15.53252455,.00327018,64.7531,229.8456,31.6012,328.7085,0,U,40970,999,11118,.82454058E-3,.53534E-3,0
LMRST-SAT,2015-058H,2026-05-12T01:49:09.049152,14.90378102,.0130726,64.7775,27.4575,72.7766,288.7606,0,U,40971,999,10817,.19653E-3,.2077E-4,0
SNAP-3 EDDIE,2015-058J,2026-05-11T22:42:56.342016,15.54440501,.0033183,64.7451,219.4469,34.9650,325.3663,0,U,40972,999,11338,.82496E-3,.56012E-3,0
PROPCUBE 3,2015-058K,2026-05-12T01:34:33.944160,14.94006584,.0122917,64.7702,5.3715,74.2976,287.1657,0,U,40973,999,10940,.21193E-3,.2448E-4,0
BISONSAT,2015-058L,2026-05-11T19:29:43.102752,15.15447122,.00786939,64.7596,291.1714,63.0474,297.8660,0,U,40974,999,11010,.39334241E-3,.7877E-4,0
SNAP-3 JIMI,2015-058M,2026-05-11T21:42:35.013888,15.01921190,.0104891,64.7662,334.5350,70.4061,290.8344,0,U,40975,999,10877,.27516E-3,.3875E-4,0
PROPCUBE 1 (FLORA),2015-058N,2026-05-12T03:09:51.542784,14.89012344,.012954,64.7758,46.9618,75.0312,286.5097,0,U,40976,999,11089,.19124E-3,.1935E-4,0
SINOD-D 3,2015-058P,2026-05-12T02:11:12.217632,14.93734232,.0118036,64.7740,28.5110,72.5572,288.8404,0,U,40977,999,10936,.23494E-3,.2682E-4,0
HORYU-4,2016-012D,2026-05-11T15:58:20.937504,15.77715483,.00056421,30.9894,342.9931,13.7022,346.3788,0,U,41340,999,56501,.69384794E-3,.12335E-2,0
RAVAN,2016-067B,2026-05-12T02:05:29.690016,15.51365510,.0007214,97.9943,17.5857,122.2694,237.9257,0,U,41849,999,52209,.52311E-3,.30766E-3,0
CELTEE 1,2016-067C,2026-05-12T01:17:30.486048,15.19318741,.0001842,98.0723,356.1584,60.3871,299.7545,0,U,41850,999,52039,.14983E-3,.3086E-4,0
OPTICUBE 04,2016-067D,2026-05-12T00:28:53.366304,15.09502308,.0014417,98.0738,342.4139,237.4226,122.5610,0,U,41851,999,51971,.76478E-4,.1156E-4,0
AEROCUBE 8D,2016-067E,2026-05-12T04:16:01.665120,15.23884204,.0001919,98.0736,359.6163,251.1173,108.9854,0,U,41852,999,52058,.19631E-3,.4657E-4,0
AEROCUBE 8C,2016-067F,2026-05-12T01:51:10.620864,15.24121164,.0005439,98.0607,356.7831,169.9977,190.1368,0,U,41853,999,52056,.18458E-3,.4406E-4,0
CORVUS BC2,2017-042X,2026-05-12T04:28:56.242848,15.06063142,.0011924,97.4038,294.9505,230.6846,129.3325,0,U,42846,999,48164,.16172E-3,.2305E-4,0
CORVUS BC1,2017-042Y,2026-05-12T04:27:03.870144,15.06235198,.0011253,97.4071,295.7397,204.4002,155.6695,0,U,42847,999,48167,.15951E-3,.2283E-4,0
MAKERSAT 0,2017-073D,2026-05-12T04:12:10.429344,15.30547279,.0111835,97.4681,14.4471,41.9670,319.0072,0,U,43016,999,46095,.44167E-3,.15764E-3,0
